start=new Date('2022-04-06T00:00:00.000Z').valueOf();
sats=[{"REF_FRAME":"TEME","MEAN_ANOMALY":"303.5616","PERIOD":"95.592","ARG_OF_PERICENTER":"56.5550","MEAN_MOTION":"15.06399850","GP_ID":"200508500","DECAY_DATE":null,"OBJECT_NAME":"STARLINK-2470","ECCENTRICITY":"0.00018570","SEMIMAJOR_AXIS":"6925.349","SITE":"AFETR","OBJECT_ID":"2021-036BL","REV_AT_EPOCH":"5184","EPHEMERIS_TYPE":"0","CLASSIFICATION_TYPE":"U","MEAN_MOTION_DOT":"0.00004050","TIME_SYSTEM":"UTC","RCS_SIZE":"LARGE","BSTAR":"0.00029063000000","ELEMENT_SET_NO":"999","CENTER_NAME":"EARTH","TLE_LINE2":"2 48334  53.0544  60.7792 0001857  56.5550 303.5616 15.06399850 51841","TLE_LINE1":"1 48334U 21036BL  22095.31291888  .00004050  00000-0  29063-3 0  9994","MEAN_MOTION_DDOT":"0.0000000000000","INCLINATION":"53.0544","RA_OF_ASC_NODE":"60.7792","EPOCH":"2022-04-05T07:30:36.191232","NORAD_CAT_ID":"48334","OBJECT_TYPE":"PAYLOAD","LAUNCH_DATE":"2021-04-29","PERIAPSIS":"545.928","APOAPSIS":"548.500","MEAN_ELEMENT_THEORY":"SGP4","FILE":"3389439","COUNTRY_CODE":"US"},{"NORAD_CAT_ID":"48335","OBJECT_TYPE":"PAYLOAD","PERIAPSIS":"546.268","LAUNCH_DATE":"2021-04-29","APOAPSIS":"548.059","FILE":"3389912","MEAN_ELEMENT_THEORY":"SGP4","COUNTRY_CODE":"US","TLE_LINE2":"2 48335  53.0547  58.4272 0001293  77.5740 282.5394 15.06416473 51929","TLE_LINE1":"1 48335U 21036BM  22095.84000473  .00006939  00000-0  48407-3 0  9992","MEAN_MOTION_DDOT":"0.0000000000000","INCLINATION":"53.0547","RA_OF_ASC_NODE":"58.4272","EPOCH":"2022-04-05T20:09:36.408672","REV_AT_EPOCH":"5192","EPHEMERIS_TYPE":"0","CLASSIFICATION_TYPE":"U","MEAN_MOTION_DOT":"0.00006939","TIME_SYSTEM":"UTC","RCS_SIZE":"LARGE","BSTAR":"0.00048407000000","ELEMENT_SET_NO":"999","CENTER_NAME":"EARTH","REF_FRAME":"TEME","ARG_OF_PERICENTER":"77.5740","PERIOD":"95.591","MEAN_ANOMALY":"282.5394","MEAN_MOTION":"15.06416473","GP_ID":"200544573","DECAY_DATE":null,"OBJECT_NAME":"STARLINK-2441","ECCENTRICITY":"0.00012930","SEMIMAJOR_AXIS":"6925.298","SITE":"AFETR","OBJECT_ID":"2021-036BM"},{"GP_ID":"200516772","MEAN_MOTION":"15.06394121","PERIOD":"95.593","MEAN_ANOMALY":"306.1099","ARG_OF_PERICENTER":"54.0067","REF_FRAME":"TEME","SITE":"AFETR","SEMIMAJOR_AXIS":"6925.367","OBJECT_ID":"2021-038A","ECCENTRICITY":"0.00019100","DECAY_DATE":null,"OBJECT_NAME":"STARLINK-2613","TIME_SYSTEM":"UTC","RCS_SIZE":"LARGE","MEAN_MOTION_DOT":"0.00000660","REV_AT_EPOCH":"5150","EPHEMERIS_TYPE":"0","CLASSIFICATION_TYPE":"U","ELEMENT_SET_NO":"999","CENTER_NAME":"EARTH","BSTAR":"0.00006319400000","INCLINATION":"53.0548","TLE_LINE1":"1 48353U 21038A   22095.84554190  .00000660  00000-0  63194-4 0  9990","TLE_LINE2":"2 48353  53.0548 318.4056 0001910  54.0067 306.1099 15.06394121 51501","MEAN_MOTION_DDOT":"0.0000000000000","EPOCH":"2022-04-05T20:17:34.820160","RA_OF_ASC_NODE":"318.4056","LAUNCH_DATE":"2021-05-04","PERIAPSIS":"545.909","OBJECT_TYPE":"PAYLOAD","NORAD_CAT_ID":"48353","COUNTRY_CODE":"US","FILE":"3389672","MEAN_ELEMENT_THEORY":"SGP4","APOAPSIS":"548.554"},{"RA_OF_ASC_NODE":"318.4186","EPOCH":"2022-04-05T20:12:16.573536","TLE_LINE2":"2 48354  53.0569 318.4186 0001219  64.9449 295.1666 15.06385100 51509","MEAN_MOTION_DDOT":"0.0000000000000","TLE_LINE1":"1 48354U 21038B   22095.84185849  .00000752  00000-0  69411-4 0  9992","INCLINATION":"53.0569","MEAN_ELEMENT_THEORY":"SGP4","FILE":"3389678","COUNTRY_CODE":"US","APOAPSIS":"548.103","PERIAPSIS":"546.415","LAUNCH_DATE":"2021-05-04","NORAD_CAT_ID":"48354","OBJECT_TYPE":"PAYLOAD","ECCENTRICITY":"0.00012190","SITE":"AFETR","SEMIMAJOR_AXIS":"6925.394","OBJECT_ID":"2021-038B","DECAY_DATE":null,"OBJECT_NAME":"STARLINK-2674","MEAN_MOTION":"15.06385100","GP_ID":"200516872","REF_FRAME":"TEME","ARG_OF_PERICENTER":"64.9449","PERIOD":"95.593","MEAN_ANOMALY":"295.1666","BSTAR":"0.00006941100000","ELEMENT_SET_NO":"999","CENTER_NAME":"EARTH","MEAN_MOTION_DOT":"0.00000752","TIME_SYSTEM":"UTC","RCS_SIZE":"LARGE","REV_AT_EPOCH":"5150","EPHEMERIS_TYPE":"0","CLASSIFICATION_TYPE":"U"},{"RCS_SIZE":"LARGE","TIME_SYSTEM":"UTC","MEAN_MOTION_DOT":"0.00008512","CLASSIFICATION_TYPE":"U","EPHEMERIS_TYPE":"0","REV_AT_EPOCH":"5150","CENTER_NAME":"EARTH","ELEMENT_SET_NO":"999","BSTAR":"0.00058947000000","GP_ID":"200517844","MEAN_MOTION":"15.06413019","PERIOD":"95.591","MEAN_ANOMALY":"301.9987","ARG_OF_PERICENTER":"58.1156","REF_FRAME":"TEME","OBJECT_ID":"2021-038C","SITE":"AFETR","SEMIMAJOR_AXIS":"6925.309","ECCENTRICITY":"0.00015790","OBJECT_NAME":"STARLINK-2635","DECAY_DATE":null,"PERIAPSIS":"546.080","LAUNCH_DATE":"2021-05-04","OBJECT_TYPE":"PAYLOAD","NORAD_CAT_ID":"48355","COUNTRY_CODE":"US","FILE":"3389700","MEAN_ELEMENT_THEORY":"SGP4","APOAPSIS":"548.267","INCLINATION":"53.0548","TLE_LINE2":"2 48355  53.0548 318.4328 0001579  58.1156 301.9987 15.06413019 51507","TLE_LINE1":"1 48355U 21038C   22095.83816958  .00008512  00000-0  58947-3 0  9997","MEAN_MOTION_DDOT":"0.0000000000000","EPOCH":"2022-04-05T20:06:57.851712","RA_OF_ASC_NODE":"318.4328"},{"MEAN_ELEMENT_THEORY":"SGP4","FILE":"3389912","COUNTRY_CODE":"US","APOAPSIS":"548.444","LAUNCH_DATE":"2021-05-04","PERIAPSIS":"545.942","NORAD_CAT_ID":"48356","OBJECT_TYPE":"PAYLOAD","RA_OF_ASC_NODE":"318.1587","EPOCH":"2022-04-05T21:37:11.753472","TLE_LINE2":"2 48356  53.0530 318.1587 0001807  61.8044 298.3127 15.06406702 50925","MEAN_MOTION_DDOT":"0.0000000000000","TLE_LINE1":"1 48356U 21038D   22095.90083048  .00003137  00000-0  22936-3 0  9999","INCLINATION":"53.0530","BSTAR":"0.00022936000000","CENTER_NAME":"EARTH","ELEMENT_SET_NO":"999","MEAN_MOTION_DOT":"0.00003137","RCS_SIZE":"LARGE","TIME_SYSTEM":"UTC","CLASSIFICATION_TYPE":"U","EPHEMERIS_TYPE":"0","REV_AT_EPOCH":"5092","ECCENTRICITY":"0.00018070","OBJECT_ID":"2021-038D","SEMIMAJOR_AXIS":"6925.328","SITE":"AFETR","OBJECT_NAME":"STARLINK-2637","DECAY_DATE":null,"MEAN_MOTION":"15.06406702","GP_ID":"200542824","REF_FRAME":"TEME","PERIOD":"95.592","MEAN_ANOMALY":"298.3127","ARG_OF_PERICENTER":"61.8044"},{"ECCENTRICITY":"0.00015760","OBJECT_ID":"2021-038E","SITE":"AFETR","SEMIMAJOR_AXIS":"6925.357","OBJECT_NAME":"STARLINK-2636","DECAY_DATE":null,"MEAN_MOTION":"15.06397388","GP_ID":"200543074","REF_FRAME":"TEME","PERIOD":"95.592","MEAN_ANOMALY":"289.3902","ARG_OF_PERICENTER":"70.7257","BSTAR":"0.00029316000000","CENTER_NAME":"EARTH","ELEMENT_SET_NO":"999","MEAN_MOTION_DOT":"0.00004087","RCS_SIZE":"LARGE","TIME_SYSTEM":"UTC","CLASSIFICATION_TYPE":"U","REV_AT_EPOCH":"5092","EPHEMERIS_TYPE":"0","RA_OF_ASC_NODE":"318.1698","EPOCH":"2022-04-05T21:31:53.456736","TLE_LINE2":"2 48357  53.0550 318.1698 0001576  70.7257 289.3902 15.06397388 50929","MEAN_MOTION_DDOT":"0.0000000000000","TLE_LINE1":"1 48357U 21038E   22095.89714649  .00004087  00000-0  29316-3 0  9990","INCLINATION":"53.0550","FILE":"3389912","MEAN_ELEMENT_THEORY":"SGP4","COUNTRY_CODE":"US","APOAPSIS":"548.313","PERIAPSIS":"546.130","LAUNCH_DATE":"2021-05-04","NORAD_CAT_ID":"48357","OBJECT_TYPE":"PAYLOAD"},{"PERIAPSIS":"545.970","LAUNCH_DATE":"2021-05-04","OBJECT_TYPE":"PAYLOAD","NORAD_CAT_ID":"48358","COUNTRY_CODE":"US","FILE":"3389912","MEAN_ELEMENT_THEORY":"SGP4","APOAPSIS":"548.402","INCLINATION":"53.0543","TLE_LINE1":"1 48358U 21038F   22095.89345936 -.00000753  00000-0 -31635-4 0  9996","TLE_LINE2":"2 48358  53.0543 318.1709 0001756  41.0723 319.0398 15.06408927 50915","MEAN_MOTION_DDOT":"0.0000000000000","EPOCH":"2022-04-05T21:26:34.888704","RA_OF_ASC_NODE":"318.1709","RCS_SIZE":"LARGE","TIME_SYSTEM":"UTC","MEAN_MOTION_DOT":"-0.00000753","CLASSIFICATION_TYPE":"U","EPHEMERIS_TYPE":"0","REV_AT_EPOCH":"5091","CENTER_NAME":"EARTH","ELEMENT_SET_NO":"999","BSTAR":"-0.00003163500000","GP_ID":"200544325","MEAN_MOTION":"15.06408927","PERIOD":"95.592","MEAN_ANOMALY":"319.0398","ARG_OF_PERICENTER":"41.0723","REF_FRAME":"TEME","OBJECT_ID":"2021-038F","SEMIMAJOR_AXIS":"6925.321","SITE":"AFETR","ECCENTRICITY":"0.00017560","OBJECT_NAME":"STARLINK-2624","DECAY_DATE":null},{"DECAY_DATE":null,"OBJECT_NAME":"STARLINK-2628","ECCENTRICITY":"0.00015780","SEMIMAJOR_AXIS":"6925.387","SITE":"AFETR","OBJECT_ID":"2021-038G","REF_FRAME":"TEME","MEAN_ANOMALY":"289.4868","PERIOD":"95.593","ARG_OF_PERICENTER":"70.6292","MEAN_MOTION":"15.06387448","GP_ID":"200544076","BSTAR":"0.00032909000000","ELEMENT_SET_NO":"999","CENTER_NAME":"EARTH","EPHEMERIS_TYPE":"0","REV_AT_EPOCH":"5091","CLASSIFICATION_TYPE":"U","MEAN_MOTION_DOT":"0.00004622","TIME_SYSTEM":"UTC","RCS_SIZE":"LARGE","RA_OF_ASC_NODE":"318.2045","EPOCH":"2022-04-05T21:21:16.485696","TLE_LINE1":"1 48359U 21038G   22095.88977414  .00004622  00000-0  32909-3 0  9999","TLE_LINE2":"2 48359  53.0546 318.2045 0001578  70.6292 289.4868 15.06387448 50910","MEAN_MOTION_DDOT":"0.0000000000000","INCLINATION":"53.0546","APOAPSIS":"548.345","MEAN_ELEMENT_THEORY":"SGP4","FILE":"3389912","COUNTRY_CODE":"US","NORAD_CAT_ID":"48359","OBJECT_TYPE":"PAYLOAD","LAUNCH_DATE":"2021-05-04","PERIAPSIS":"546.159"},{"MEAN_MOTION_DDOT":"0.0000000000000","TLE_LINE2":"2 48360  53.0563 318.2254 0001919  65.3351 294.7838 15.06405767 50910","TLE_LINE1":"1 48360U 21038H   22095.88608266  .00000093  00000-0  25154-4 0  9990","INCLINATION":"53.0563","RA_OF_ASC_NODE":"318.2254","EPOCH":"2022-04-05T21:15:57.541824","PERIAPSIS":"545.867","LAUNCH_DATE":"2021-05-04","NORAD_CAT_ID":"48360","OBJECT_TYPE":"PAYLOAD","MEAN_ELEMENT_THEORY":"SGP4","FILE":"3389912","COUNTRY_CODE":"US","APOAPSIS":"548.525","MEAN_MOTION":"15.06405767","GP_ID":"200543324","REF_FRAME":"TEME","PERIOD":"95.592","MEAN_ANOMALY":"294.7838","ARG_OF_PERICENTER":"65.3351","ECCENTRICITY":"0.00019190","OBJECT_ID":"2021-038H","SITE":"AFETR","SEMIMAJOR_AXIS":"6925.331","OBJECT_NAME":"STARLINK-2622","DECAY_DATE":null,"MEAN_MOTION_DOT":"0.00000093","RCS_SIZE":"LARGE","TIME_SYSTEM":"UTC","CLASSIFICATION_TYPE":"U","EPHEMERIS_TYPE":"0","REV_AT_EPOCH":"5091","BSTAR":"0.00002515400000","CENTER_NAME":"EARTH","ELEMENT_SET_NO":"999"}];
